STARLINK-5308           
1 55300U 23010AH  26204.54858256 -.00000175  00000+0 -69028-5 0  9990
2 55300  69.9979  41.7428 0002648 269.4702  90.6153 14.98328335193621
STARLINK-5321           
1 55302U 23010AK  26204.56110576  .00001071  00000+0  97497-4 0  9994
2 55302  69.9996  41.7813 0002610 266.4007  93.6853 14.98331415193627
STARLINK-5322           
1 55303U 23010AL  26204.03144028  .00000551  00000+0  53980-4 0  9997
2 55303  69.9994  63.0136 0002728 266.5442  93.5405 14.98329399193052
STARLINK-5318           
1 55304U 23010AM  26204.54440789  .00000040  00000+0  11178-4 0  9993
2 55304  69.9995  41.7250 0002832 265.3252  94.7584 14.98330541193621
STARLINK-5316           
1 55305U 23010AN  26203.80591175  .00000482  00000+0  48177-4 0  9997
2 55305  69.9996  43.9674 0002417 271.5432  88.5450 14.98337888193517
STARLINK-5295           
1 55306U 23010AP  26204.44405711  .00000033  00000+0  10573-4 0  9990
2 55306  70.0001  22.3050 0003049 266.0732  94.0079 14.98330381194107
STARLINK-5288           
1 55307U 23010AQ  26204.24795257  .00000211  00000+0  25476-4 0  9992
2 55307  70.0010  22.8258 0002608 268.7809  91.3052 14.98330200194074
STARLINK-5315           
1 55309U 23010AS  26204.46490250  .00000060  00000+0  12810-4 0  9993
2 55309  70.0001  21.9760 0002747 268.3047  91.7797 14.98330800194119
STARLINK-5309           
1 55310U 23010AT  26204.50246706  .00000529  00000+0  52097-4 0  9996
2 55310  70.0020  22.1075 0002354 261.9315  98.1577 14.98344673194115
STARLINK-5312           
1 55311U 23010AU  26204.23961383  .00000699  00000+0  66378-4 0  9997
2 55311  70.0004  22.7943 0002771 269.4257  90.6584 14.98322520194942
STARLINK-5296           
1 55312U 23010AV  26204.47741628  .00000126  00000+0  18314-4 0  9994
2 55312  70.0003  21.9057 0002858 269.4108  90.6724 14.98331082194961
STARLINK-5313           
1 55313U 23010AW  26203.75976323 -.00001095  00000+0 -84001-4 0  9991
2 55313  70.0003  23.9279 0002752 263.8126  96.2720 14.98341421194877
STARLINK-5305           
1 55314U 23010AX  26204.49830051  .00000759  00000+0  71374-4 0  9994
2 55314  70.0001  22.0889 0003011 272.9877  87.0937 14.98337788194987
STARLINK-4623           
1 55315U 23010AY  26203.97696069  .00000357  00000+0  37710-4 0  9996
2 55315  69.9995  43.3567 0002647 269.9543  90.1313 14.98332459193528
STARLINK-5257           
1 55316U 23010AZ  26204.20203649  .00000084  00000+0  14811-4 0  9996
2 55316  69.9999  22.6766 0002653 268.3427  91.7429 14.98332376194945
STARLINK-5265           
1 55317U 23010BA  26204.48994911 -.00000102  00000+0 -76508-6 0  9992
2 55317  70.0001  22.0892 0002708 270.1602  89.9247 14.98329994194987
STARLINK-5180           
1 55318U 23010BB  26204.48578080  .00000661  00000+0  63163-4 0  9997
2 55318  69.9986  22.0461 0002440 275.3934  84.6946 14.98319864194980
STARLINK-5196           
1 55319U 23010BC  26204.48159877 -.00000070  00000+0  19272-5 0  9995
2 55319  70.0000  22.0325 0002671 263.5337  96.5518 14.98330242194982
HAWK-6B                 
1 55324U 23011A   26204.83654666  .00004371  00000+0  18888-3 0  9994
2 55324  40.4981 138.2572 0004564 283.3017  76.7283 15.23211892193435
HAWK-6C                 
1 55326U 23011C   26204.83591507  .00004405  00000+0  19029-3 0  9996
2 55326  40.4974 135.0963 0004995 279.4626  80.5619 15.23211246193448
HAWK-6A                 
1 55327U 23011D   26204.83595088  .00004437  00000+0  19160-3 0  9996
2 55327  40.4984 136.7238 0004809 275.4908  84.5352 15.23212079193449
STARLINK-5492           
1 55331U 23013A   26204.50506088 -.00000889  00000+0 -22795-4 0  9997
2 55331  43.0012 256.4848 0001314 270.8198  89.2503 15.27573975193528
STARLINK-5491           
1 55332U 23013B   26204.19661855  .00000344  00000+0  22041-4 0  9995
2 55332  43.0006 243.7388 0001311 268.9422  91.1280 15.27578905192560
STARLINK-5493           
1 55333U 23013C   26204.44738262 -.00000460  00000+0 -71825-5 0  9997
2 55333  43.0011 256.9110 0001094 275.1110  84.9617 15.27574086192434
STARLINK-5652           
1 55334U 23013D   26204.50889758 -.00000053  00000+0  76045-5 0  9998
2 55334  43.0010 256.4121 0001229 270.7430  89.3280 15.27573085192441
STARLINK-5660           
1 55335U 23013E   26204.18969204 -.00000714  00000+0 -16431-4 0  9995
2 55335  43.0007 258.4149 0001030 276.2583  83.8151 15.27574545192392
STARLINK-5655           
1 55336U 23013F   26204.44016062 -.00000269  00000+0 -23840-6 0  9999
2 55336  43.0026 242.0492 0001640 274.2285  85.8380 15.27574417192606
STARLINK-5667           
1 55337U 23013G   26204.40435174  .00003902  00000+0  15132-3 0  9992
2 55337  43.0013 242.6831 0001787 288.6530  71.4127 15.27561612192591
STARLINK-5658           
1 55338U 23013H   26204.45509294 -.00000346  00000+0 -30572-5 0  9991
2 55338  43.0022 256.9674 0001398 292.0473  68.0230 15.27573558192430
STARLINK-5671           
1 55339U 23013J   26204.44946182 -.00000046  00000+0  78316-5 0  9996
2 55339  43.0002 260.3358 0001009 274.5234  85.5502 15.27583904192393
