OBJECT_NAME,OBJECT_ID,EPOCH,MEAN_MOTION,ECCENTRICITY,INCLINATION,RA_OF_ASC_NODE,ARG_OF_PERICENTER,MEAN_ANOMALY,EPHEMERIS_TYPE,CLASSIFICATION_TYPE,NORAD_CAT_ID,ELEMENT_SET_NO,REV_AT_EPOCH,BSTAR,MEAN_MOTION_DOT,MEAN_MOTION_DDOT
STARLINK-5308,2023-010AH,2026-07-23T13:09:57.533184,14.98328335,.0002648,69.9979,41.7428,269.4702,90.6153,0,U,55300,999,19362,-.69028E-5,-.175E-5,0
STARLINK-5321,2023-010AK,2026-07-23T13:27:59.537664,14.98331415,.000261,69.9996,41.7813,266.4007,93.6853,0,U,55302,999,19362,.97497E-4,.1071E-4,0
STARLINK-5322,2023-010AL,2026-07-23T00:45:16.440192,14.98329399,.00027284,69.9994,63.0136,266.5442,93.5405,0,U,55303,999,19305,.5397991E-4,.551E-5,0
STARLINK-5318,2023-010AM,2026-07-23T13:03:56.841696,14.98330541,.0002832,69.9995,41.7250,265.3252,94.7584,0,U,55304,999,19362,.11178E-4,.4E-6,0
STARLINK-5316,2023-010AN,2026-07-22T19:20:30.775200,14.98337888,.00024179,69.9996,43.9674,271.5432,88.5450,0,U,55305,999,19351,.48176908E-4,.482E-5,0
STARLINK-5295,2023-010AP,2026-07-23T10:39:26.534304,14.98330381,.0003049,70.0001,22.3050,266.0732,94.0079,0,U,55306,999,19410,.10573E-4,.33E-6,0
STARLINK-5288,2023-010AQ,2026-07-23T05:57:03.102048,14.98330200,.0002608,70.0010,22.8258,268.7809,91.3052,0,U,55307,999,19407,.25476E-4,.211E-5,0
STARLINK-5315,2023-010AS,2026-07-23T11:09:27.576000,14.98330800,.0002747,70.0001,21.9760,268.3047,91.7797,0,U,55309,999,19411,.1281E-4,.6E-6,0
STARLINK-5309,2023-010AT,2026-07-23T12:03:33.153984,14.98344673,.0002354,70.0020,22.1075,261.9315,98.1577,0,U,55310,999,19411,.52097E-4,.529E-5,0
STARLINK-5312,2023-010AU,2026-07-23T05:45:02.634912,14.98322520,.0002771,70.0004,22.7943,269.4257,90.6584,0,U,55311,999,19494,.66378E-4,.699E-5,0
STARLINK-5296,2023-010AV,2026-07-23T11:27:28.766592,14.98331082,.0002858,70.0003,21.9057,269.4108,90.6724,0,U,55312,999,19496,.18314E-4,.126E-5,0
STARLINK-5313,2023-010AW,2026-07-22T18:14:03.543072,14.98341421,.00027522,70.0003,23.9279,263.8126,96.2720,0,U,55313,999,19487,-.84001032E-4,-.1095E-4,0
STARLINK-5305,2023-010AX,2026-07-23T11:57:33.164064,14.98337788,.0003011,70.0001,22.0889,272.9877,87.0937,0,U,55314,999,19498,.71374E-4,.759E-5,0
STARLINK-4623,2023-010AY,2026-07-22T23:26:49.403616,14.98332459,.0002647,69.9995,43.3567,269.9543,90.1313,0,U,55315,999,19352,.37710105E-4,.357E-5,0
STARLINK-5257,2023-010AZ,2026-07-23T04:50:55.952736,14.98332376,.0002653,69.9999,22.6766,268.3427,91.7429,0,U,55316,999,19494,.14811E-4,.84E-6,0
STARLINK-5265,2023-010BA,2026-07-23T11:45:31.603104,14.98329994,.0002708,70.0001,22.0892,270.1602,89.9247,0,U,55317,999,19498,-.76508E-6,-.102E-5,0
STARLINK-5180,2023-010BB,2026-07-23T11:39:31.461120,14.98319864,.000244,69.9986,22.0461,275.3934,84.6946,0,U,55318,999,19498,.63163E-4,.661E-5,0
STARLINK-5196,2023-010BC,2026-07-23T11:33:30.133728,14.98330242,.0002671,70.0000,22.0325,263.5337,96.5518,0,U,55319,999,19498,.19272E-5,-.7E-6,0
HAWK-6B,2023-011A,2026-07-23T20:04:37.631424,15.23211892,.0004564,40.4981,138.2572,283.3017,76.7283,0,U,55324,999,19343,.18888E-3,.4371E-4,0
HAWK-6C,2023-011C,2026-07-23T20:03:43.062048,15.23211246,.0004995,40.4974,135.0963,279.4626,80.5619,0,U,55326,999,19344,.19029E-3,.4405E-4,0
HAWK-6A,2023-011D,2026-07-23T20:03:46.156032,15.23212079,.0004809,40.4984,136.7238,275.4908,84.5352,0,U,55327,999,19344,.1916E-3,.4437E-4,0
STARLINK-5492,2023-013A,2026-07-23T12:07:17.260032,15.27573975,.0001314,43.0012,256.4848,270.8198,89.2503,0,U,55331,999,19352,-.22795E-4,-.889E-5,0
STARLINK-5491,2023-013B,2026-07-23T04:43:07.842720,15.27578905,.00013117,43.0006,243.7388,268.9422,91.1280,0,U,55332,999,19256,.22041029E-4,.344E-5,0
STARLINK-5493,2023-013C,2026-07-23T10:44:13.858368,15.27574086,.0001094,43.0011,256.9110,275.1110,84.9617,0,U,55333,999,19243,-.71825E-5,-.46E-5,0
STARLINK-5652,2023-013D,2026-07-23T12:12:48.750912,15.27573085,.0001229,43.0010,256.4121,270.7430,89.3280,0,U,55334,999,19244,.76045E-5,-.53E-6,0
STARLINK-5660,2023-013E,2026-07-23T04:33:09.392256,15.27574545,.00010308,43.0007,258.4149,276.2583,83.8151,0,U,55335,999,19239,-.16430888E-4,-.714E-5,0
STARLINK-5655,2023-013F,2026-07-23T10:33:49.877568,15.27574417,.000164,43.0026,242.0492,274.2285,85.8380,0,U,55336,999,19260,-.2384E-6,-.269E-5,0
STARLINK-5667,2023-013G,2026-07-23T09:42:15.990336,15.27561612,.0001787,43.0013,242.6831,288.6530,71.4127,0,U,55337,999,19259,.15132E-3,.3902E-4,0
STARLINK-5658,2023-013H,2026-07-23T10:55:20.030016,15.27573558,.0001398,43.0022,256.9674,292.0473,68.0230,0,U,55338,999,19243,-.30572E-5,-.346E-5,0
STARLINK-5671,2023-013J,2026-07-23T10:47:13.501248,15.27583904,.0001009,43.0002,260.3358,274.5234,85.5502,0,U,55339,999,19239,.78316E-5,-.46E-6,0
